SL-16 R/B               
1 22803U 93059B   26069.25329645 -.00000140  00000+0 -45502-4 0  9996
2 22803  70.9927   9.9371 0018510 215.7825 144.2060 14.17231574679616
ARIANE 40 R/B           
1 22830U 93061H   26069.11755693  .00000236  00000+0  10245-3 0  9999
2 22830  98.4915 137.9968 0009580 283.6486  76.3631 14.32861206694160
COSMOS 2278             
1 23087U 94023A   26069.23422437  .00000097  00000+0  75171-4 0  9998
2 23087  71.0552 173.9582 0008067  12.1891 347.9425 14.14379120644886
SL-16 R/B               
1 23088U 94023B   26069.13905765 -.00000243  00000+0 -10093-3 0  9994
2 23088  70.9985  69.9432 0005717 285.2568  74.7922 14.15011712646156
SL-16 R/B               
1 23343U 94074B   26069.05772017  .00000591  00000+0  85870-4 0  9997
2 23343  97.7109  99.8605 0005817 208.9932 178.9569 14.79408494687300
SL-16 R/B               
1 23405U 94077B   26069.19117704  .00000000  00000+0  24298-4 0  9992
2 23405  70.9853 351.4341 0003067 211.4855 148.6084 14.15561273616303
ARIANE 40+ R/B          
1 23561U 95021B   26069.15813299  .00000353  00000+0  12658-3 0  9990
2 23561  98.4495 140.6344 0007663 135.1800 254.0412 14.39772837619319
SL-16 R/B               
1 23705U 95058B   26069.26886872  .00000322  00000+0  18909-3 0  9990
2 23705  71.0221 179.0390 0010773 124.7322 235.4818 14.15495658567939
SL-16 R/B               
1 24298U 96051B   26069.30764448  .00000106  00000+0  83972-4 0  9994
2 24298  70.7604 173.9309 0015022 147.0802 213.1256 14.12415890521738
ORBVIEW 2 (SEASTAR)     
1 24883U 97037A   26069.04521035  .00000387  00000+0  15062-3 0  9998
2 24883  98.8568 233.3664 0003098  71.4417 288.7104 14.35495267508528
SL-16 R/B               
1 25400U 98043G   26069.29290538  .00000115  00000+0  67037-4 0  9999
2 25400  98.8253  22.6605 0010187  18.7243 341.4309 14.26050094439079
SL-16 R/B               
1 25407U 98045B   26069.27951155  .00000206  00000+0  12819-3 0  9993
2 25407  71.0118 180.3337 0006765   7.1960 352.9259 14.16190283427182
ISS (ZARYA)             
1 25544U 98067A   26069.15865511  .00009130  00000+0  17626-3 0  9992
2 25544  51.6324  70.0375 0007971 176.2903 183.8146 15.48557200556405
CZ-4B R/B               
1 25732U 99025C   26069.08238257  .00000056  00000+0  47800-4 0  9995
2 25732  98.6626 113.3547 0036715 345.4857  43.2279 14.18265352388227
OKEAN-O                 
1 25860U 99039A   26069.12512873  .00000794  00000+0  11094-3 0  9990
2 25860  97.9441 129.0122 0001254  70.1592 289.9755 14.80335846434457
SL-16 R/B               
1 25861U 99039B   26069.17211038  .00000705  00000+0  96212-4 0  9993
2 25861  97.9966 128.2682 0013522 254.3522 105.6199 14.81732333436936
DELTA 2 R/B             
1 25876U 99041E   26069.00810879  .00001293  00000+0  24629-3 0  9997
2 25876  51.7624 300.0088 0502408 349.3726   9.6894 14.11838777363079
